[{"OBJECT_NAME":"STARLINK-30525","OBJECT_ID":"2023-153X","EPOCH":"2026-03-09T00:02:31.628544","MEAN_MOTION":15.26741269,"ECCENTRICITY":0.00018693,"INCLINATION":43.0059,"RA_OF_ASC_NODE":70.7104,"ARG_OF_PERICENTER":287.6945,"MEAN_ANOMALY":72.3702,"EPHEMERIS_TYPE":0,"CLASSIFICATION_TYPE":"U","NORAD_CAT_ID":58012,"ELEMENT_SET_NO":999,"REV_AT_EPOCH":13479,"BSTAR":4.6237044e-5,"MEAN_MOTION_DOT":9.8e-6,"MEAN_MOTION_DDOT":0},{"OBJECT_NAME":"TEVEL2-1","OBJECT_ID":"2025-052H","EPOCH":"2026-03-09T15:32:51.927072","MEAN_MOTION":15.30341923,"ECCENTRICITY":0.0004767,"INCLINATION":97.3991,"RA_OF_ASC_NODE":324.7682,"ARG_OF_PERICENTER":104.8919,"MEAN_ANOMALY":255.2849,"EPHEMERIS_TYPE":0,"CLASSIFICATION_TYPE":"U","NORAD_CAT_ID":63217,"ELEMENT_SET_NO":999,"REV_AT_EPOCH":5485,"BSTAR":0.000706,"MEAN_MOTION_DOT":0.00020683,"MEAN_MOTION_DDOT":0}]
